0 FENGYUN 1C DEB
1 30523U 99025AJM 13282.41074229  .00000396  00000-0  14043-3 0  4160
2 30523 098.7733 326.4426 0258321 147.8866 340.2485 14.23010650348205
0 FENGYUN 1C DEB
1 30523U 99025AJM 13283.80487659  .00000361  00000-0  12928-3 0  4172
2 30523 098.7731 327.8332 0258359 143.8664 282.1541 14.23012062348405
0 FENGYUN 1C DEB
1 30523U 99025AJM 13285.07122975  .00000330  00000-0  11933-3 0  4182
2 30523 098.7728 329.0964 0258390 140.2145 289.4681 14.23012583348588
0 FENGYUN 1C DEB
1 30523U 99025AJM 13286.11783946  .00000388  00000-0  13757-3 0  4199
2 30523 098.7725 330.1405 0258412 137.1971 251.0782 14.23013258348739
0 FENGYUN 1C DEB
1 30523U 99025AJM 13287.81155258  .00000498  00000-0  17223-3 0  4202
2 30523 098.7719 331.8301 0258427 132.3185 287.6901 14.23015441348975
0 FENGYUN 1C DEB
1 30523U 99025AJM 13289.07193243  .00000478  00000-0  16584-3 0  4216
2 30523 098.7715 333.0872 0258437 128.6853 264.4185 14.23018030349154
0 FENGYUN 1C DEB
1 30523U 99025AJM 13290.63787392  .00000485  00000-0  16790-3 0  4222
2 30523 098.7711 334.6489 0258461 124.1715 006.5089 14.23019060349372
0 FENGYUN 1C DEB
1 30523U 99025AJM 13291.82020669  .00000506  00000-0  17456-3 0  4236
2 30523 098.7710 335.8280 0258463 120.7657 303.4313 14.23020311349541
0 FENGYUN 1C DEB
1 30523U 99025AJM 13293.08659294  .00000511  00000-0  17618-3 0  4245
2 30523 098.7709 337.0908 0258451 117.1164 310.9515 14.23021839349723
0 FENGYUN 1C DEB
1 30523U 99025AJM 13294.36408578  .00000476  00000-0  16531-3 0  4258
2 30523 098.7710 338.3646 0258440 113.4339 015.3795 14.23023508349900
0 FENGYUN 1C DEB
1 30523U 99025AJM 13295.82610546  .00000567  00000-0  19364-3 0  4269
2 30523 098.7709 339.8225 0258447 109.2200 305.1237 14.23024726350113
